     2.100          NAVIGATION                              RINEX VERSION / TYPE
fic2rin                                 11/26/2013 00:16:35 PGM / RUN BY / DATE
                                                            END OF HEADER
17 13 11 25 20  0  0.0 -.441805459559D-04 -.352429196937D-11  .000000000000D+00
     .700000000000D+02 -.499375000000D+02  .456447584303D-08  .929599609144D+00
    -.268407166004D-05  .877200963441D-02  .638701021671D-05  .515370856667D+04
     .158400000000D+06 -.968575477600D-07  .553152258475D+00  .279396772385D-07
     .967050385119D+00  .259312500000D+03 -.217745729366D+01 -.825070081766D-08
    -.446447167745D-10  .100000000000D+01  .176800000000D+04  .000000000000D+00
     .240000000000D+01  .000000000000D+00 -.107102096081D-07  .700000000000D+02
     .151206000000D+06  .400000000000D+01
18 13 11 25 20  0  0.0  .286961905658D-03  .216004991671D-11  .000000000000D+00
     .840000000000D+02  .423437500000D+02  .541201114627D-08  .247497511130D+01
     .200979411602D-05  .145690576173D-01  .693462789059D-05  .515365038300D+04
     .158400000000D+06  .968575477600D-07  .260199191877D+01 -.221654772758D-06
     .926622627906D+00  .225187500000D+03 -.207008715416D+01 -.826534428477D-08
     .885751180806D-10  .100000000000D+01  .176800000000D+04  .000000000000D+00
     .240000000000D+01  .000000000000D+00 -.111758708954D-07  .840000000000D+02
     .151206000000D+06  .400000000000D+01
19 13 11 25 20  0  0.0 -.421083997935D-03 -.261479726760D-11  .000000000000D+00
     .700000000000D+02 -.591250000000D+02  .464483633322D-08  .648198271374D-01
    -.300630927086D-05  .964312313590D-02  .660866498947D-05  .515376147652D+04
     .158400000000D+06  .147148966789D-06  .604533620658D+00  .949949026108D-07
     .964188857376D+00  .253906250000D+03  .397746257328D+00 -.831320342115D-08
    -.235724104569D-10  .100000000000D+01  .176800000000D+04  .000000000000D+00
     .240000000000D+01  .000000000000D+00 -.149011611938D-07  .700000000000D+02
     .151206000000D+06  .400000000000D+01
20 13 11 25 20  0  0.0  .139704905450D-03  .295585778076D-11  .000000000000D+00
     .520000000000D+02  .418750000000D+02  .544236955368D-08  .295812750040D+01
     .215321779251D-05  .583826855291D-02  .770203769207D-05  .515363355255D+04
     .158400000000D+06  .745058059692D-07  .254875225417D+01 -.162050127983D-06
     .927469208358D+00  .209875000000D+03  .128994496576D+01 -.841999358367D-08
     .107861635727D-09  .100000000000D+01  .176800000000D+04  .000000000000D+00
     .240000000000D+01  .000000000000D+00 -.791624188423D-08  .520000000000D+02
     .151206000000D+06  .400000000000D+01
21 13 11 25 20  0  0.0 -.330182258040D-03 -.170530256582D-11  .000000000000D+00
     .780000000000D+02 -.176250000000D+02  .503628120990D-08 -.277889706934D+01
    -.122003257275D-05  .206932720030D-01  .102687627077D-04  .515360259056D+04
     .158400000000D+06  .288709998131D-06  .155546759906D+01 -.208616256714D-06
     .931520097277D+00  .161375000000D+03 -.208815865873D+01 -.795497421375D-08
     .166435504135D-09  .100000000000D+01  .176800000000D+04  .000000000000D+00
     .240000000000D+01  .000000000000D+00 -.111758708954D-07  .780000000000D+02
     .151206000000D+06  .400000000000D+01
22 13 11 25 20  0  0.0  .197155401111D-03  .193267624127D-11  .000000000000D+00
     .610000000000D+02  .443750000000D+02  .562737725999D-08  .191274247934D+01
     .224262475967D-05  .669180590194D-02  .719167292118D-05  .515364110947D+04
     .158400000000D+06 -.689178705215D-07  .260423802467D+01 -.171363353729D-06
     .924384212564D+00  .222781250000D+03 -.204585740231D+01 -.855428489173D-08
     .142148778210D-09  .100000000000D+01  .176800000000D+04  .000000000000D+00
     .340000000000D+01  .000000000000D+00 -.172294676304D-07  .610000000000D+02
     .151206000000D+06  .400000000000D+01
23 13 11 25 20  0  0.0  .269953161478D-04 -.329691829393D-11  .000000000000D+00
     .500000000000D+01  .953125000000D+01  .488020328006D-08 -.312892900857D+00
     .394880771637D-06  .884653034154D-02  .607036054134D-05  .515362711716D+04
     .158400000000D+06  .115483999252D-06 -.261879530596D+01  .949949026108D-07
     .954006687145D+00  .256968750000D+03 -.280950361673D+01 -.842785105383D-08
    -.336442585613D-09  .100000000000D+01  .176800000000D+04  .000000000000D+00
     .240000000000D+01  .000000000000D+00 -.200234353542D-07  .500000000000D+01
     .151206000000D+06  .400000000000D+01
24 13 11 25 20  0  0.0 -.180327333510D-04 -.682121026330D-12  .000000000000D+00
     .780000000000D+02  .123437500000D+02  .441125517506D-08 -.821191374191D+00
     .610947608948D-06  .139010709245D-02  .827759504318D-05  .515364490509D+04
     .158400000000D+06  .614672899246D-07 -.159179641488D+01 -.614672899246D-07
     .957861537726D+00  .221656250000D+03  .794973105592D-01 -.805319259065D-08
    -.167149819604D-09  .100000000000D+01  .176800000000D+04  .000000000000D+00
     .340000000000D+01  .000000000000D+00  .279396772385D-08  .780000000000D+02
     .151206000000D+06  .400000000000D+01
25 13 11 25 20  0  0.0  .169596634805D-03  .306954461848D-11  .000000000000D+00
     .440000000000D+02  .110937500000D+02  .416374486526D-08 -.312436234301D+01
     .638887286186D-06  .279613386374D-02  .591762363911D-05  .515369014549D+04
     .158400000000D+06  .409781932831D-07 -.539619600614D+00  .353902578354D-07
     .974892193636D+00  .273250000000D+03  .668163966660D+00 -.797854662421D-08
     .268582616115D-09  .100000000000D+01  .176800000000D+04  .000000000000D+00
     .240000000000D+01  .000000000000D+00  .558793544769D-08  .440000000000D+02
     .151206000000D+06  .400000000000D+01
26 13 11 25 20  0  0.0  .239444896579D-03 -.103455022327D-10  .000000000000D+00
     .420000000000D+02  .925000000000D+01  .442518432669D-08 -.318627636280D+00
     .648200511932D-06  .211644676747D-01  .665336847305D-05  .515368148613D+04
     .158400000000D+06 -.184401869774D-06 -.253428693630D+01  .186264514923D-06
     .977173912816D+00  .261593750000D+03  .125558878671D+01 -.843963725905D-08
    -.262153776900D-09  .100000000000D+01  .176800000000D+04  .000000000000D+00
     .240000000000D+01  .000000000000D+00 -.605359673500D-08  .420000000000D+02
     .151206000000D+06  .400000000000D+01
28 13 11 25 20  0  0.0  .311651732773D-03  .295585778076D-11  .000000000000D+00
     .530000000000D+02  .281250000000D+01  .394837875154D-08  .173842566534D+01
    -.128522515297D-06  .191025793320D-01  .648014247417D-05  .515365644073D+04
     .158400000000D+06 -.447034835815D-07 -.474819022552D+00 -.488013029099D-06
     .985271742237D+00  .266218750000D+03 -.175269585774D+01 -.783996942334D-08
     .276797244002D-09  .100000000000D+01  .176800000000D+04  .000000000000D+00
     .240000000000D+01  .000000000000D+00 -.107102096081D-07  .530000000000D+02
     .151206000000D+06  .400000000000D+01
29 13 11 25 20  0  0.0  .489993020892D-03  .318323145621D-11  .000000000000D+00
     .230000000000D+02 -.537812500000D+02  .444697094848D-08 -.245113622337D+01
    -.274553894997D-05  .148616521619D-02  .678561627865D-05  .515379507065D+04
     .158400000000D+06 -.242143869400D-07  .562058316488D+00  .447034835815D-07
     .967730680061D+00  .249656250000D+03 -.985486636125D+00 -.803783480808D-08
     .185722021782D-10  .100000000000D+01  .176800000000D+04  .000000000000D+00
     .240000000000D+01  .000000000000D+00 -.931322574615D-08  .230000000000D+02
     .151206000000D+06  .400000000000D+01
31 13 11 25 20  0  0.0  .330239534378D-03  .568434188608D-12  .000000000000D+00
     .220000000000D+02  .241875000000D+02  .395409327528D-08 -.186168092276D+01
     .125169754028D-05  .813996396028D-02  .914186239243D-05  .515372373581D+04
     .158400000000D+06 -.141561031342D-06 -.155486713409D+01  .316649675369D-07
     .979373511089D+00  .216687500000D+03 -.716929100278D+00 -.788318550918D-08
    -.589310261424D-10  .100000000000D+01  .176800000000D+04  .000000000000D+00
     .240000000000D+01  .000000000000D+00 -.130385160446D-07  .220000000000D+02
     .151206000000D+06  .400000000000D+01
32 13 11 25 20  0  0.0 -.524933449924D-03  .488853402203D-11  .000000000000D+00
     .750000000000D+02  .362812500000D+02  .510056960205D-08 -.137702558868D+01
     .186637043953D-05  .116004827432D-01  .732205808163D-05  .515354582405D+04
     .158400000000D+06  .186264514923D-07  .269214919299D+01 -.204890966415D-06
     .948616284602D+00  .232718750000D+03 -.234010020279D+00 -.839499254228D-08
     .266796827444D-09  .100000000000D+01  .176800000000D+04  .000000000000D+00
     .240000000000D+01  .000000000000D+00 -.325962901115D-08  .750000000000D+02
     .151206000000D+06  .400000000000D+01
 1 13 11 25 19 59 44.0  .972300767899D-04  .306954461848D-11  .000000000000D+00
     .120000000000D+02 -.284375000000D+02  .453126017375D-08 -.137932841923D+01
    -.151433050632D-05  .255449593533D-02  .102240592241D-04  .515368943787D+04
     .158384000000D+06  .428408384323D-07  .156238956126D+01 -.465661287308D-07
     .960112822359D+00  .181125000000D+03  .434304659127D+00 -.796783189218D-08
     .853606984729D-10  .100000000000D+01  .176800000000D+04  .000000000000D+00
     .240000000000D+01  .630000000000D+02  .791624188423D-08  .120000000000D+02
     .153306000000D+06  .400000000000D+01
15 13 11 25 19 59 28.0 -.148992519826D-03 -.193267624127D-11  .000000000000D+00
     .000000000000D+00  .637500000000D+01  .521271713059D-08  .216933602830D+00
     .275671482086D-06  .588835694361D-02  .560842454433D-05  .515360390854D+04
     .158368000000D+06  .316649675369D-07 -.266269777450D+01  .353902578354D-07
     .939017508546D+00  .255812500000D+03  .188730980946D+00 -.853749847822D-08
    -.335371112410D-09  .100000000000D+01  .176800000000D+04  .000000000000D+00
     .240000000000D+01  .000000000000D+00 -.102445483208D-07  .000000000000D+00
     .153906000000D+06  .400000000000D+01
